;========开始换盘 =================
G91;
G380 S3 Z-20 F1200;
G380 S2 Z100 F1200;
G380 S3 Z-20 F1200;
G380 S2 Z100 F1200;
G380 S3 Z-20 F1200;
G380 S2 Z100 F1200
G380 S3 Z-20 F1200;
G1 Z5 F1200;
G90;
G28 Y;
G91;
G380 S2 Z25 F1200;
G90;
M211  Y0 Z0 ;
G91;
G90;
G1 Y260 F2000;
G1 Y35 F1000;
G1 Y0 F2500;
G91;
G4 P500;
G380 S3 Z-20 F1200;
G4 P500;
G90;
G1 Y266 F2000;
G1 Y35 F2000;
G1 Y266 F2000;
G1 Y250 F8000;
G1 Y266 F8000;
G1 Y100 F2000;
G1 Y266 F2000;
G1 Y250 F8000;
G1 Y266 F8000;
G1 Y0 F1000;
G1 Y150 F1000;
G4 P500;
G91;
G380 S3 Z-150 F1200;
G90;
G28 Y;
;=======换板结束====================